{"type": "FeatureCollection", "features": [ {"type": "Feature", "properties": {"norad_id": 34058, "name": "COSMOS 2251 DEB", "group": "cosmos-2251-debris", "lat": 46.61602581909802, "lon": 175.4757450087993, "alt_km": 1090.382131881266, "timestamp": "2025-12-25T07:41:10.117002+00:00", "meta": {"OBJECT_NAME": "COSMOS 2251 DEB", "OBJECT_ID": "1993-036JV", "EPOCH": "2025-12-24T21:24:28.340352", "MEAN_MOTION": 13.56095146, "ECCENTRICITY": 0.03773868, "INCLINATION": 73.9316, "RA_OF_ASC_NODE": 158.4149, "ARG_OF_PERICENTER": 151.3408, "MEAN_ANOMALY": 332.1603, "EPHEMERIS_TYPE": 0, "CLASSIFICATION_TYPE": "U", "NORAD_CAT_ID": 34058, "ELEMENT_SET_NO": 999, "REV_AT_EPOCH": 83307, "BSTAR": 0.00077325009, "MEAN_MOTION_DOT": 8.38e-06, "MEAN_MOTION_DDOT": 0}, "tle": {"line1": "1 34058U 93036JV  25358.89199468  .00000838  00000+0  77325-3 0  9993", "line2": "2 34058  73.9316 158.4149 0377386 151.3408 332.1603 13.56095146833078"}}, "geometry": {"type": "Point", "coordinates": [175.4757450087993, 46.61602581909802]}}, {"type": "Feature", "properties": {"norad_id": 34059, "name": "COSMOS 2251 DEB", "group": "cosmos-2251-debris", "lat": -20.545857018077704, "lon": 156.38433406567756, "alt_km": 722.9017333943348, "timestamp": "2025-12-25T07:41:10.117012+00:00", "meta": {"OBJECT_NAME": "COSMOS 2251 DEB", "OBJECT_ID": "1993-036JW", "EPOCH": "2025-12-24T22:26:40.828128", "MEAN_MOTION": 14.53019988, "ECCENTRICITY": 0.0018398, "INCLINATION": 74.0377, "RA_OF_ASC_NODE": 163.2688, "ARG_OF_PERICENTER": 239.5673, "MEAN_ANOMALY": 245.5415, "EPHEMERIS_TYPE": 0, "CLASSIFICATION_TYPE": "U", "NORAD_CAT_ID": 34059, "ELEMENT_SET_NO": 999, "REV_AT_EPOCH": 88636, "BSTAR": 0.00093790863, "MEAN_MOTION_DOT": 3.854e-05, "MEAN_MOTION_DDOT": 0}, "tle": {"line1": "1 34059U 93036JW  25358.93519477  .00003854  00000+0  93791-3 0  9991", "line2": "2 34059  74.0377 163.2688 0018398 239.5673 245.5415 14.53019988886364"}}, "geometry": {"type": "Point", "coordinates": [156.38433406567756, -20.545857018077704]}}, {"type": "Feature", "properties": {"norad_id": 34061, "name": "COSMOS 2251 DEB", "group": "cosmos-2251-debris", "lat": 60.6867811485476, "lon": 29.489570034961154, "alt_km": 764.962606105928, "timestamp": "2025-12-25T07:41:10.117022+00:00", "meta": {"OBJECT_NAME": "COSMOS 2251 DEB", "OBJECT_ID": "1993-036JY", "EPOCH": "2025-12-24T22:55:02.253216", "MEAN_MOTION": 14.40381143, "ECCENTRICITY": 0.00208918, "INCLINATION": 74.0386, "RA_OF_ASC_NODE": 240.8106, "ARG_OF_PERICENTER": 315.9844, "MEAN_ANOMALY": 64.9903, "EPHEMERIS_TYPE": 0, "CLASSIFICATION_TYPE": "U", "NORAD_CAT_ID": 34061, "ELEMENT_SET_NO": 999, "REV_AT_EPOCH": 88356, "BSTAR": 0.00027906681, "MEAN_MOTION_DOT": 8.61e-06, "MEAN_MOTION_DDOT": 0}, "tle": {"line1": "1 34061U 93036JY  25358.95488719  .00000861  00000+0  27907-3 0  9991", "line2": "2 34061  74.0386 240.8106 0020891 315.9844  64.9903 14.40381143883569"}}, "geometry": {"type": "Point", "coordinates": [29.489570034961154, 60.6867811485476]}}, {"type": "Feature", "properties": {"norad_id": 34062, "name": "COSMOS 2251 DEB", "group": "cosmos-2251-debris", "lat": 1.1320725205361717, "lon": -67.03936225668176, "alt_km": 584.3643957035656, "timestamp": "2025-12-25T07:41:10.117033+00:00", "meta": {"OBJECT_NAME": "COSMOS 2251 DEB", "OBJECT_ID": "1993-036JZ", "EPOCH": "2025-12-24T18:28:49.073952", "MEAN_MOTION": 14.79133604, "ECCENTRICITY": 0.00728473, "INCLINATION": 74.0284, "RA_OF_ASC_NODE": 114.3674, "ARG_OF_PERICENTER": 190.9513, "MEAN_ANOMALY": 299.1319, "EPHEMERIS_TYPE": 0, "CLASSIFICATION_TYPE": "U", "NORAD_CAT_ID": 34062, "ELEMENT_SET_NO": 999, "REV_AT_EPOCH": 88773, "BSTAR": 0.0028482024, "MEAN_MOTION_DOT": 0.00022114, "MEAN_MOTION_DDOT": 0}, "tle": {"line1": "1 34062U 93036JZ  25358.77001243  .00022114  00000+0  28482-2 0  9998", "line2": "2 34062  74.0284 114.3674 0072847 190.9513 299.1319 14.79133604887739"}}, "geometry": {"type": "Point", "coordinates": [-67.03936225668176, 1.1320725205361717]}}, {"type": "Feature", "properties": {"norad_id": 34064, "name": "COSMOS 2251 DEB", "group": "cosmos-2251-debris", "lat": 1.6278033220954577, "lon": 67.06310701559859, "alt_km": 764.1595702723644, "timestamp": "2025-12-25T07:41:10.117043+00:00", "meta": {"OBJECT_NAME": "COSMOS 2251 DEB", "OBJECT_ID": "1993-036KB", "EPOCH": "2025-12-24T17:48:17.428896", "MEAN_MOTION": 14.42375968, "ECCENTRICITY": 0.00224019, "INCLINATION": 74.0318, "RA_OF_ASC_NODE": 248.602, "ARG_OF_PERICENTER": 313.5354, "MEAN_ANOMALY": 102.745, "EPHEMERIS_TYPE": 0, "CLASSIFICATION_TYPE": "U", "NORAD_CAT_ID": 34064, "ELEMENT_SET_NO": 999, "REV_AT_EPOCH": 88315, "BSTAR": 0.00043746488, "MEAN_MOTION_DOT": 1.424e-05, "MEAN_MOTION_DDOT": 0}, "tle": {"line1": "1 34064U 93036KB  25358.74186839  .00001424  00000+0  43746-3 0  9994", "line2": "2 34064  74.0318 248.6020 0022401 313.5354 102.7450 14.42375968883150"}}, "geometry": {"type": "Point", "coordinates": [67.06310701559859, 1.6278033220954577]}}, {"type": "Feature", "properties": {"norad_id": 34065, "name": "COSMOS 2251 DEB", "group": "cosmos-2251-debris", "lat": -2.4194390686035225, "lon": -125.74415409958014, "alt_km": 757.0850697596825, "timestamp": "2025-12-25T07:41:10.117054+00:00", "meta": {"OBJECT_NAME": "COSMOS 2251 DEB", "OBJECT_ID": "1993-036KC", "EPOCH": "2025-12-24T18:38:49.667136", "MEAN_MOTION": 14.38074669, "ECCENTRICITY": 0.00168541, "INCLINATION": 74.0348, "RA_OF_ASC_NODE": 235.9493, "ARG_OF_PERICENTER": 331.4332, "MEAN_ANOMALY": 94.5489, "EPHEMERIS_TYPE": 0, "CLASSIFICATION_TYPE": "U", "NORAD_CAT_ID": 34065, "ELEMENT_SET_NO": 999, "REV_AT_EPOCH": 88378, "BSTAR": 0.00014314911, "MEAN_MOTION_DOT": 4.08e-06, "MEAN_MOTION_DDOT": 0}, "tle": {"line1": "1 34065U 93036KC  25358.77696374  .00000408  00000+0  14315-3 0  9999", "line2": "2 34065  74.0348 235.9493 0016854 331.4332  94.5489 14.38074669883785"}}, "geometry": {"type": "Point", "coordinates": [-125.74415409958014, -2.4194390686035225]}}, {"type": "Feature", "properties": {"norad_id": 34070, "name": "COSMOS 2251 DEB", "group": "cosmos-2251-debris", "lat": -32.17332680618269, "lon": -78.06023196919902, "alt_km": 630.6728212473554, "timestamp": "2025-12-25T07:41:10.117064+00:00", "meta": {"OBJECT_NAME": "COSMOS 2251 DEB", "OBJECT_ID": "1993-036KH", "EPOCH": "2025-12-24T12:55:20.843616", "MEAN_MOTION": 14.77407923, "ECCENTRICITY": 0.00178897, "INCLINATION": 74.0008, "RA_OF_ASC_NODE": 93.0773, "ARG_OF_PERICENTER": 210.5778, "MEAN_ANOMALY": 166.3906, "EPHEMERIS_TYPE": 0, "CLASSIFICATION_TYPE": "U", "NORAD_CAT_ID": 34070, "ELEMENT_SET_NO": 999, "REV_AT_EPOCH": 88785, "BSTAR": 0.0025806462, "MEAN_MOTION_DOT": 0.00018432, "MEAN_MOTION_DDOT": 0}, "tle": {"line1": "1 34070U 93036KH  25358.53843569  .00018432  00000+0  25806-2 0  9991", "line2": "2 34070  74.0008  93.0773 0017889 210.5778 166.3906 14.77407923887858"}}, "geometry": {"type": "Point", "coordinates": [-78.06023196919902, -32.17332680618269]}}, {"type": "Feature", "properties": {"norad_id": 34114, "name": "COSMOS 2251 DEB", "group": "cosmos-2251-debris", "lat": -20.823130252463123, "lon": -153.76730712137726, "alt_km": 742.7247947117285, "timestamp": "2025-12-25T07:41:10.117074+00:00", "meta": {"OBJECT_NAME": "COSMOS 2251 DEB", "OBJECT_ID": "1993-036KK", "EPOCH": "2025-12-24T13:21:08.572608", "MEAN_MOTION": 14.56531346, "ECCENTRICITY": 0.00481549, "INCLINATION": 74.0585, "RA_OF_ASC_NODE": 21.4389, "ARG_OF_PERICENTER": 12.1188, "MEAN_ANOMALY": 145.6475, "EPHEMERIS_TYPE": 0, "CLASSIFICATION_TYPE": "U", "NORAD_CAT_ID": 34114, "ELEMENT_SET_NO": 999, "REV_AT_EPOCH": 87973, "BSTAR": 0.0017206, "MEAN_MOTION_DOT": 7.759e-05, "MEAN_MOTION_DDOT": 0}, "tle": {"line1": "1 34114U 93036KK  25358.55634922  .00007759  00000+0  17206-2 0  9998", "line2": "2 34114  74.0585  21.4389 0048154  12.1188 145.6475 14.56531346879738"}}, "geometry": {"type": "Point", "coordinates": [-153.76730712137726, -20.823130252463123]}}, {"type": "Feature", "properties": {"norad_id": 34115, "name": "COSMOS 2251 DEB", "group": "cosmos-2251-debris", "lat": -71.17753086011787, "lon": 159.83424279258307, "alt_km": 646.5202319413374, "timestamp": "2025-12-25T07:41:10.117084+00:00", "meta": {"OBJECT_NAME": "COSMOS 2251 DEB", "OBJECT_ID": "1993-036KL", "EPOCH": "2025-12-24T20:41:15.945504", "MEAN_MOTION": 14.79642314, "ECCENTRICITY": 0.00290516, "INCLINATION": 74.005, "RA_OF_ASC_NODE": 218.0383, "ARG_OF_PERICENTER": 37.9328, "MEAN_ANOMALY": 322.3887, "EPHEMERIS_TYPE": 0, "CLASSIFICATION_TYPE": "U", "NORAD_CAT_ID": 34115, "ELEMENT_SET_NO": 999, "REV_AT_EPOCH": 89591, "BSTAR": 0.00087982801, "MEAN_MOTION_DOT": 6.619e-05, "MEAN_MOTION_DDOT": 0}, "tle": {"line1": "1 34115U 93036KL  25358.86199011  .00006619  00000+0  87983-3 0  9992", "line2": "2 34115  74.0050 218.0383 0029051  37.9328 322.3887 14.79642314895912"}}, "geometry": {"type": "Point", "coordinates": [159.83424279258307, -71.17753086011787]}}, {"type": "Feature", "properties": {"norad_id": 34116, "name": "COSMOS 2251 DEB", "group": "cosmos-2251-debris", "lat": 54.729107406027424, "lon": -44.82228719763158, "alt_km": 713.465653775077, "timestamp": "2025-12-25T07:41:10.117094+00:00", "meta": {"OBJECT_NAME": "COSMOS 2251 DEB", "OBJECT_ID": "1993-036KM", "EPOCH": "2025-12-24T21:46:30.483264", "MEAN_MOTION": 14.53047531, "ECCENTRICITY": 0.0011798, "INCLINATION": 74.0399, "RA_OF_ASC_NODE": 159.8239, "ARG_OF_PERICENTER": 236.014, "MEAN_ANOMALY": 246.6341, "EPHEMERIS_TYPE": 0, "CLASSIFICATION_TYPE": "U", "NORAD_CAT_ID": 34116, "ELEMENT_SET_NO": 999, "REV_AT_EPOCH": 88663, "BSTAR": 0.00088233001, "MEAN_MOTION_DOT": 3.622e-05, "MEAN_MOTION_DDOT": 0}, "tle": {"line1": "1 34116U 93036KM  25358.90729726  .00003622  00000+0  88233-3 0  9990", "line2": "2 34116  74.0399 159.8239 0011798 236.0140 246.6341 14.53047531886638"}}, "geometry": {"type": "Point", "coordinates": [-44.82228719763158, 54.729107406027424]}}]}